{"fetched_at":"2026-07-06T08:46:43.220Z","source":"https://celestrak.org/NORAD/elements/gp.php?GROUP=spire&FORMAT=JSON","constellation":"spire","records":[{"OBJECT_NAME":"LEMUR-1","OBJECT_ID":"2014-033AL","EPOCH":"2026-07-05T08:22:07.900320","CLASSIFICATION_TYPE":"U","MEAN_MOTION":14.85316858,"ECCENTRICITY":0.0048598,"INCLINATION":97.7902,"RA_OF_ASC_NODE":335.7525,"ARG_OF_PERICENTER":20.2635,"MEAN_ANOMALY":340.0495,"EPHEMERIS_TYPE":0,"NORAD_CAT_ID":40044,"ELEMENT_SET_NO":999,"REV_AT_EPOCH":64816,"BSTAR":0.00032917,"MEAN_MOTION_DOT":0.00002834,"MEAN_MOTION_DDOT":0},{"OBJECT_NAME":"LEMUR-2-GREENBERG","OBJECT_ID":"2017-042N","EPOCH":"2026-07-05T10:41:48.956928","CLASSIFICATION_TYPE":"U","MEAN_MOTION":15.31933266,"ECCENTRICITY":0.0007252,"INCLINATION":97.3831,"RA_OF_ASC_NODE":6.9935,"ARG_OF_PERICENTER":301.4286,"MEAN_ANOMALY":58.6246,"EPHEMERIS_TYPE":0,"NORAD_CAT_ID":42837,"ELEMENT_SET_NO":999,"REV_AT_EPOCH":49118,"BSTAR":0.00081834,"MEAN_MOTION_DOT":0.00025227,"MEAN_MOTION_DDOT":0},{"OBJECT_NAME":"LEMUR-2-ANDIS","OBJECT_ID":"2017-042P","EPOCH":"2026-07-04T23:25:33.974688","CLASSIFICATION_TYPE":"U","MEAN_MOTION":15.35609045,"ECCENTRICITY":0.0007173,"INCLINATION":97.3686,"RA_OF_ASC_NODE":6.7722,"ARG_OF_PERICENTER":301.4091,"MEAN_ANOMALY":58.6451,"EPHEMERIS_TYPE":0,"NORAD_CAT_ID":42838,"ELEMENT_SET_NO":999,"REV_AT_EPOCH":49118,"BSTAR":0.0010849,"MEAN_MOTION_DOT":0.00037644,"MEAN_MOTION_DDOT":0},{"OBJECT_NAME":"LEMUR-2-MONSON","OBJECT_ID":"2017-042Q","EPOCH":"2026-07-05T07:08:58.697376","CLASSIFICATION_TYPE":"U","MEAN_MOTION":15.28567422,"ECCENTRICITY":0.0005133,"INCLINATION":97.4091,"RA_OF_ASC_NODE":6.7904,"ARG_OF_PERICENTER":291.2369,"MEAN_ANOMALY":68.8323,"EPHEMERIS_TYPE":0,"NORAD_CAT_ID":42839,"ELEMENT_SET_NO":999,"REV_AT_EPOCH":49093,"BSTAR":0.00086312,"MEAN_MOTION_DOT":0.00023973,"MEAN_MOTION_DDOT":0},{"OBJECT_NAME":"LEMUR-2-FURIAUS","OBJECT_ID":"2017-042R","EPOCH":"2026-07-04T23:52:10.411680","CLASSIFICATION_TYPE":"U","MEAN_MOTION":15.30876648,"ECCENTRICITY":0.0006802,"INCLINATION":97.3777,"RA_OF_ASC_NODE":4.4585,"ARG_OF_PERICENTER":9.0393,"MEAN_ANOMALY":351.0969,"EPHEMERIS_TYPE":0,"NORAD_CAT_ID":42840,"ELEMENT_SET_NO":999,"REV_AT_EPOCH":49093,"BSTAR":0.0010187,"MEAN_MOTION_DOT":0.00030427,"MEAN_MOTION_DDOT":0},{"OBJECT_NAME":"LEMUR-2-PETERG","OBJECT_ID":"2017-042S","EPOCH":"2026-07-05T00:52:13.897344","CLASSIFICATION_TYPE":"U","MEAN_MOTION":15.34726677,"ECCENTRICITY":0.0002785,"INCLINATION":97.3997,"RA_OF_ASC_NODE":11.1039,"ARG_OF_PERICENTER":269.8202,"MEAN_ANOMALY":90.2722,"EPHEMERIS_TYPE":0,"NORAD_CAT_ID":42841,"ELEMENT_SET_NO":999,"REV_AT_EPOCH":49117,"BSTAR":0.0011524,"MEAN_MOTION_DOT":0.00038865,"MEAN_MOTION_DDOT":0},{"OBJECT_NAME":"LEMUR-2-DEMBITZ","OBJECT_ID":"2017-042T","EPOCH":"2026-07-05T11:19:19.318368","CLASSIFICATION_TYPE":"U","MEAN_MOTION":15.30893362,"ECCENTRICITY":0.0005327,"INCLINATION":97.3831,"RA_OF_ASC_NODE":7.9707,"ARG_OF_PERICENTER":318.3139,"MEAN_ANOMALY":41.7696,"EPHEMERIS_TYPE":0,"NORAD_CAT_ID":42842,"ELEMENT_SET_NO":999,"REV_AT_EPOCH":49114,"BSTAR":0.00087057,"MEAN_MOTION_DOT":0.00025981,"MEAN_MOTION_DDOT":0},{"OBJECT_NAME":"LEMUR-2-ZACHARY","OBJECT_ID":"2017-042W","EPOCH":"2026-07-05T01:27:37.751904","CLASSIFICATION_TYPE":"U","MEAN_MOTION":15.51963049,"ECCENTRICITY":0.0002338,"INCLINATION":97.3586,"RA_OF_ASC_NODE":18.0961,"ARG_OF_PERICENTER":301.4836,"MEAN_ANOMALY":58.6188,"EPHEMERIS_TYPE":0,"NORAD_CAT_ID":42845,"ELEMENT_SET_NO":999,"REV_AT_EPOCH":49197,"BSTAR":0.0012929,"MEAN_MOTION_DOT":0.00078238,"MEAN_MOTION_DDOT":0},{"OBJECT_NAME":"LEMUR-2-AMANDA-SVANTE","OBJECT_ID":"2021-034B","EPOCH":"2026-07-03T17:19:57.056160","CLASSIFICATION_TYPE":"U","MEAN_MOTION":15.35322295,"ECCENTRICITY":0.0003869,"INCLINATION":97.5753,"RA_OF_ASC_NODE":263.4542,"ARG_OF_PERICENTER":168.8216,"MEAN_ANOMALY":191.3113,"EPHEMERIS_TYPE":0,"NORAD_CAT_ID":48269,"ELEMENT_SET_NO":999,"REV_AT_EPOCH":28359,"BSTAR":0.0010612,"MEAN_MOTION_DOT":0.00036457,"MEAN_MOTION_DDOT":0},{"OBJECT_NAME":"LEMUR-2-SPECIAL-K","OBJECT_ID":"2021-034F","EPOCH":"2026-07-05T05:14:15.186048","CLASSIFICATION_TYPE":"U","MEAN_MOTION":15.71011365,"ECCENTRICITY":0.0005659,"INCLINATION":97.5631,"RA_OF_ASC_NODE":274.4583,"ARG_OF_PERICENTER":222.9166,"MEAN_ANOMALY":137.1655,"EPHEMERIS_TYPE":0,"NORAD_CAT_ID":48273,"ELEMENT_SET_NO":999,"REV_AT_EPOCH":28451,"BSTAR":0.0023721,"MEAN_MOTION_DOT":0.00307426,"MEAN_MOTION_DDOT":0},{"OBJECT_NAME":"LEMUR-2-EMBRIONOVIS","OBJECT_ID":"2023-084AQ","EPOCH":"2026-07-05T08:33:28.918944","CLASSIFICATION_TYPE":"U","MEAN_MOTION":15.38040861,"ECCENTRICITY":0.0007665,"INCLINATION":97.6318,"RA_OF_ASC_NODE":331.2609,"ARG_OF_PERICENTER":244.9811,"MEAN_ANOMALY":115.0638,"EPHEMERIS_TYPE":0,"NORAD_CAT_ID":56970,"ELEMENT_SET_NO":999,"REV_AT_EPOCH":17047,"BSTAR":0.00057222,"MEAN_MOTION_DOT":0.00021385,"MEAN_MOTION_DDOT":0},{"OBJECT_NAME":"LEMUR-2-DEVERILL-M-T","OBJECT_ID":"2023-100F","EPOCH":"2026-07-05T02:25:06.368160","CLASSIFICATION_TYPE":"U","MEAN_MOTION":15.40706658,"ECCENTRICITY":0.0004919,"INCLINATION":99.4455,"RA_OF_ASC_NODE":230.0436,"ARG_OF_PERICENTER":341.2411,"MEAN_ANOMALY":18.8647,"EPHEMERIS_TYPE":0,"NORAD_CAT_ID":57391,"ELEMENT_SET_NO":999,"REV_AT_EPOCH":16400,"BSTAR":0.0011163,"MEAN_MOTION_DOT":0.00045721,"MEAN_MOTION_DDOT":0},{"OBJECT_NAME":"LEMUR-2-BASS","OBJECT_ID":"2023-174D","EPOCH":"2026-07-05T05:37:28.253856","CLASSIFICATION_TYPE":"U","MEAN_MOTION":15.43743378,"ECCENTRICITY":0.0007985,"INCLINATION":97.3843,"RA_OF_ASC_NODE":271.206,"ARG_OF_PERICENTER":108.0287,"MEAN_ANOMALY":252.1832,"EPHEMERIS_TYPE":0,"NORAD_CAT_ID":58259,"ELEMENT_SET_NO":999,"REV_AT_EPOCH":14814,"BSTAR":0.00060544,"MEAN_MOTION_DOT":0.00027358,"MEAN_MOTION_DDOT":0},{"OBJECT_NAME":"LEMUR-2-JK0903EM1407","OBJECT_ID":"2023-174CJ","EPOCH":"2026-07-05T09:19:42.771072","CLASSIFICATION_TYPE":"U","MEAN_MOTION":15.52676162,"ECCENTRICITY":0.0004436,"INCLINATION":97.3919,"RA_OF_ASC_NODE":277.3837,"ARG_OF_PERICENTER":64.2078,"MEAN_ANOMALY":295.9632,"EPHEMERIS_TYPE":0,"NORAD_CAT_ID":58336,"ELEMENT_SET_NO":999,"REV_AT_EPOCH":14855,"BSTAR":0.00053157,"MEAN_MOTION_DOT":0.00032761,"MEAN_MOTION_DDOT":0},{"OBJECT_NAME":"LEMUR-2-MJR092620","OBJECT_ID":"2023-174CN","EPOCH":"2026-07-05T05:26:10.221216","CLASSIFICATION_TYPE":"U","MEAN_MOTION":15.45587928,"ECCENTRICITY":0.0006215,"INCLINATION":97.3972,"RA_OF_ASC_NODE":276.5958,"ARG_OF_PERICENTER":62.9314,"MEAN_ANOMALY":297.2569,"EPHEMERIS_TYPE":0,"NORAD_CAT_ID":58340,"ELEMENT_SET_NO":999,"REV_AT_EPOCH":14843,"BSTAR":0.0006507,"MEAN_MOTION_DOT":0.00031311,"MEAN_MOTION_DDOT":0},{"OBJECT_NAME":"LEMUR-2-NIMBUS2000","OBJECT_ID":"2024-022A","EPOCH":"2026-07-05T01:45:48.101760","CLASSIFICATION_TYPE":"U","MEAN_MOTION":15.40789502,"ECCENTRICITY":0.0009679,"INCLINATION":97.4091,"RA_OF_ASC_NODE":36.3054,"ARG_OF_PERICENTER":61.4495,"MEAN_ANOMALY":298.7724,"EPHEMERIS_TYPE":0,"NORAD_CAT_ID":58899,"ELEMENT_SET_NO":999,"REV_AT_EPOCH":13502,"BSTAR":0.00090805,"MEAN_MOTION_DOT":0.00037288,"MEAN_MOTION_DDOT":0}]}
